{
  "user": {
    "loggedIn": "true",
    "username": "chethan",
    "premiumUser": "false",
    "cureentLocation": "Chikkamagaluru",
    "log_cordi": "25.3",
    "lat_cord": "36.5"
  },
  "promotionsMetaData": {
    "noOfPromotions": "2",
    "promotions": [
      {
        "promotionID": "promo452",
        "promotionIMG": "promoImg",
        "promoDestURL": "https://promoDestiURL.com"
      },
      {
        "promotionID": "promo452",
        "promotionIMG": "promoImg",
        "promoDestURL": "https://promoDestiURL.com"
      },
      {
        "promotionID": "promo452",
        "promotionIMG": "promoImg",
        "promoDestURL": "https://promoDestiURL.com"
      },
      {
        "promotionID": "promo452",
        "promotionIMG": "promoImg",
        "promoDestURL": "https://promoDestiURL.com"
      }
    ]
  },
  "categoriesMetaData": [
    {
      "placesNearby": {
        "title": "Places Near you",
        "topPlaces": [
          {
            "placeID": "001",
            "placename": "Taj Mahal",
            "placeImg": "https://image.com/img.jpg",
            "noOfReview": "120"
          },
          {
            "placeID": "001",
            "placename": "Taj Mahal",
            "placeImg": "https://image.com/img.jpg",
            "noOfReview": "120"
          },
          {
            "placeID": "001",
            "placename": "Taj Mahal",
            "placeImg": "https://image.com/img.jpg",
            "noOfReview": "120"
          },
          {
            "placeID": "001",
            "placename": "Taj Mahal",
            "placeImg": "https://image.com/img.jpg",
            "noOfReview": "120"
          },
          {
            "placeID": "001",
            "placename": "Taj Mahal",
            "placeImg": "https://image.com/img.jpg",
            "noOfReview": "120"
          }
        ]
      }
    },
    {
      "placesNearby": {
        "title": "Resturants Near you",
        "topPlaces": [
          {
            "placeID": "001",
            "placename": "Taj Mahal",
            "placeImg": "https://image.com/img.jpg",
            "noOfReview": "120"
          },
          {
            "placeID": "001",
            "placename": "Taj Mahal",
            "placeImg": "https://image.com/img.jpg",
            "noOfReview": "120"
          },
          {
            "placeID": "001",
            "placename": "Taj Mahal",
            "placeImg": "https://image.com/img.jpg",
            "noOfReview": "120"
          },
          {
            "placeID": "001",
            "placename": "Taj Mahal",
            "placeImg": "https://image.com/img.jpg",
            "noOfReview": "120"
          },
          {
            "placeID": "001",
            "placename": "Taj Mahal",
            "placeImg": "https://image.com/img.jpg",
            "noOfReview": "120"
          }
        ]
      }
    },
    {
      "placesNearby": {
        "title": "Resorts Nearby",
        "topPlaces": [
          {
            "placeID": "001",
            "placename": "Taj Mahal",
            "placeImg": "https://image.com/img.jpg",
            "noOfReview": "120"
          },
          {
            "placeID": "001",
            "placename": "Taj Mahal",
            "placeImg": "https://image.com/img.jpg",
            "noOfReview": "120"
          },
          {
            "placeID": "001",
            "placename": "Taj Mahal",
            "placeImg": "https://image.com/img.jpg",
            "noOfReview": "120"
          },
          {
            "placeID": "001",
            "placename": "Taj Mahal",
            "placeImg": "https://image.com/img.jpg",
            "noOfReview": "120"
          },
          {
            "placeID": "001",
            "placename": "Taj Mahal",
            "placeImg": "https://image.com/img.jpg",
            "noOfReview": "120"
          }
        ]
      }
    }
  ]
}